
 NASA Logo - Jet Propulsion Laboratory				+ View the NASA Portal 
+ Near-Earth Object (NEO) Program			
Search JPL

Search
JPL Home	Earth	Solar System	Stars & Galaxies	Technology

JPL Solar System Dynamics
BODIES		ORBITS		EPHEMERIDES		TOOLS		PHYSICAL DATA		DISCOVERY		FAQ		SITE MAP

HORIZONS Web-Interface
This tool provides a web-based limited interface to JPL's HORIZONS system which can be used to generate ephemerides for solar-system bodies. Full access to HORIZONS features is available via the primary telnet interface. HORIZONS system news shows recent changes and improvements. A web-interface tutorial is available to assist new users.
Current Settings

Ephemeris Type [change] : 	OBSERVER
Target Body [change] : 	Moon [Luna] [301]
Observer Location [change] : 	Glendale, CA ( 118°14'49.2''W, 34°08'30.1''N )
Time Span [change] : 	Start=2016-04-024, Stop=2017-01-01, Step=1 m
Table Settings [change] : 	QUANTITIES=4; refraction model=REFRACTED; RTS flag=TVH
Display/Output [change] : 	default (formatted HTML)
Object Data Page

Revised: Mar 11, 1998             Moon / (Earth)                            301
 
PHYSICAL PROPERTIES:
 Radius, km            = 1737.53+-0.03   Mass, 10^20 kg        =  734.9
 Density, gm cm^-3     =    3.3437       Geometric albedo      =    0.12
 V(1,0)                =   +0.21         GM, km^3/s^2          = 4902.798+-.005
 Earth/Moon mass ratio = 81.300587       Surface gravity       =    1.62 m s^-2
 Nearside crust. thick.= 58+-8 km        Farside crust. thick. = ~80 - 90 km
 Heat flow, Apollo 15  = 3.1+-.6 mW/m^2  Heat flow, Apollo 17  = 2.2+-.5 mW/m^2
 Mean crustal density  = 2.97+-.07g/cm^3 k2                    = 0.0302+-.0012 
 Induced magnetic mom. = 4.23x10^22Gcm^3 Magnetometer moment   = 435+-15

DYNAMICAL CHARACTERISTICS:
 Mean angular diameter = 31'05.2"        Orbit period          = 27.321582 d
 Obliquity to orbit    = 6.67 deg        Eccentricity          = 0.05490
 Semi-major axis, a    = 384400 km       Inclination           = 5.145 deg
 Mean motion, rad/s    = 2.6616995x10^-6 Nodal period          = 6798.38 d
 Apsidal period        = 3231.50 d       Mom. of inertia C/MR^2= 0.3935+-.0011
 beta (C-A/B), x10^-4  = 6.31(72+-15)    gamma (B-A/C), x10^-4 = 2.278(8+-2)
Results

*******************************************************************************
Ephemeris / WWW_USER Sun Apr 24 17:22:48 2016 Pasadena, USA      / Horizons    
*******************************************************************************
Target body name: Moon (301)                      {source: DE431mx}
Center body name: Earth (399)                     {source: DE431mx}
Center-site name: (user defined site below)
*******************************************************************************
Start time      : A.D. 2016-Apr-24 00:00:00.0000 UT      
Stop  time      : A.D. 2017-Jan-01 00:00:00.0000 UT      
Step-size       : 1 minutes
*******************************************************************************
Target pole/equ : IAU_MOON                        {East-longitude +}
Target radii    : 1737.4 x 1737.4 x 1737.4 km     {Equator, meridian, pole}    
Center geodetic : 241.753000,34.1417000,0.0000000 {E-lon(deg),Lat(deg),Alt(km)}
Center cylindric: 241.753000,5284.45290,3559.4664 {E-lon(deg),Dxy(km),Dz(km)}
Center pole/equ : High-precision EOP model        {East-longitude +}
Center radii    : 6378.1 x 6378.1 x 6356.8 km     {Equator, meridian, pole}    
Target primary  : Earth
Vis. interferer : MOON (R_eq= 1737.400) km        {source: DE431mx}
Rel. light bend : Sun, EARTH                      {source: DE431mx}
Rel. lght bnd GM: 1.3271E+11, 3.9860E+05 km^3/s^2                              
Atmos refraction: YES (Earth refraction model)
RA format       : HMS
Time format     : CAL 
RTS-only print  : TVH      
RTS elevation   : 0. degrees
EOP file        : eop.160422.p160714                                           
EOP coverage    : DATA-BASED 1962-JAN-20 TO 2016-APR-22. PREDICTS-> 2016-JUL-13
Units conversion: 1 au= 149597870.700 km, c= 299792.458 km/s, 1 day= 86400.0 s 
*******************************************************************************
 Date__(UT)__HR:MN     Azi_(r-appr)_Elev
****************************************
$$SOE
 2016-Jun-11 07:35  s  278.9737  -0.2033
 2016-Jun-11 19:22 *r   83.2851  -0.1183
 2016-Jun-12 01:47 *t  179.5470  60.0758
 2016-Jun-12 08:09  s  274.4134  -0.2648
 2016-Jun-12 20:17 *r   88.0843  -0.0509
 2016-Jun-13 02:30 *t  179.4698  56.1141
 2016-Jun-13 08:41  s  269.6929  -0.2386
 2016-Jun-13 21:10 *r   92.7545  -0.1514
 2016-Jun-14 03:12 Ct  179.3108  52.1778
 2016-Jun-14 09:13  s  265.0932  -0.2825
 2016-Jun-14 22:03 *r   97.3418  -0.1807
 2016-Jun-15 03:55 Nt  179.5369  48.3975
 2016-Jun-15 09:45  s  260.6238  -0.2314
 2016-Jun-15 22:57 *r  101.7693  -0.0531
 2016-Jun-16 04:38 At  179.4823  44.9033
 2016-Jun-16 10:19  s  256.5735  -0.2601
 2016-Jun-16 23:50 *r  105.5601  -0.1375
 2016-Jun-17 05:23  t  179.6571  41.8314
 2016-Jun-17 10:55  s  252.9839  -0.2191
 2016-Jun-18 00:44 *r  108.8115  -0.1074
 2016-Jun-18 06:09  t  179.6011  39.3296
 2016-Jun-18 11:35 As  250.1951  -0.2945
 2016-Jun-19 01:38 *r  111.2402  -0.0658
 2016-Jun-19 06:58  t  179.8882  37.5488
 2016-Jun-19 12:18 Cs  248.1762  -0.2227
 2016-Jun-20 02:31 *r  112.6155  -0.0593
 2016-Jun-20 07:48  t  179.9640  36.6298
 2016-Jun-20 13:06 *s  247.3285  -0.2596
 2016-Jun-21 03:22 Cr  112.7724  -0.1066
 2016-Jun-21 08:40  t  180.2577  36.6788
 2016-Jun-21 13:58 *s  247.6579  -0.2619
 2016-Jun-22 04:11 Nr  111.7478  -0.0854
 2016-Jun-22 09:32  t  180.3798  37.7453
 2016-Jun-22 14:54 *s  249.2838  -0.3119
 2016-Jun-23 04:57  r  109.4961  -0.0758
 2016-Jun-23 10:24  t  180.5133  39.8071
 2016-Jun-23 15:52 *s  251.9949  -0.2311
 2016-Jun-24 05:40  r  106.1374  -0.0758
 2016-Jun-24 11:16 At  180.8007  42.7714
 2016-Jun-24 16:53 *s  255.9034  -0.3130
 2016-Jun-25 06:20  r  101.8015  -0.1561
 2016-Jun-25 12:07 Nt  180.9684  46.4867
 2016-Jun-25 17:55 *s  260.6146  -0.3487
 2016-Jun-26 06:59  r   96.8826  -0.1161
 2016-Jun-26 12:57 *t  180.9007  50.7586
 2016-Jun-26 18:57 *s  265.7813  -0.2228
 2016-Jun-27 07:37  r   91.5035  -0.1159
 2016-Jun-27 13:48 *t  181.1641  55.3590
 2016-Jun-27 20:01 *s  271.4008  -0.2640
 2016-Jun-28 08:15  r   85.9249  -0.1769
 2016-Jun-28 14:39 *t  181.0823  60.0320
 2016-Jun-28 21:06 *s  277.0097  -0.2901
 2016-Jun-29 08:55  r   80.5590  -0.1658
 2016-Jun-29 15:32 *t  181.2487  64.4903
 2016-Jun-29 22:12 *s  282.2649  -0.3038
 2016-Jun-30 09:38  r   75.7191  -0.1192
 2016-Jun-30 16:26 *t  180.8215  68.4239
 2016-Jun-30 23:18 *s  286.7123  -0.2197
 2016-Jul-01 10:24  r   71.6312  -0.2079
 2016-Jul-01 17:23 *t  180.9514  71.5162
 2016-Jul-02 00:25 *s  290.2563  -0.3716
 2016-Jul-02 11:15 Ar   68.8278  -0.2178
 2016-Jul-02 18:21 *t  180.6545  73.4965
 2016-Jul-03 01:28 *s  292.1297  -0.2391
 2016-Jul-03 12:11 Nr   67.5875  -0.1440
 2016-Jul-03 19:20 *t  180.7842  74.1942
 2016-Jul-04 02:28 *s  292.5542  -0.2717
 2016-Jul-04 13:10 *r   67.8732  -0.1454
 2016-Jul-04 20:17 *t  180.0463  73.5934
 2016-Jul-05 03:23 Cs  291.4801  -0.3699
 2016-Jul-05 14:11 *r   69.6686  -0.1240
 2016-Jul-05 21:12 *t  179.5824  71.8226
 2016-Jul-06 04:11 Ns  288.9184  -0.2827
 2016-Jul-06 15:12 *r   72.6744  -0.1206
 2016-Jul-06 22:05 *t  179.8788  69.1152
 2016-Jul-07 04:54  s  285.3989  -0.2601
 2016-Jul-07 16:12 *r   76.5948  -0.0901
 2016-Jul-07 22:54 *t  179.5877  65.7419
 2016-Jul-08 05:33  s  281.2568  -0.3110
 2016-Jul-08 17:10 *r   81.0524  -0.0933
 2016-Jul-08 23:41 *t  179.7574  61.9544
 2016-Jul-09 06:08  s  276.6254  -0.2475
 2016-Jul-09 18:06 *r   85.7779  -0.1260
 2016-Jul-10 00:25 *t  179.4822  57.9696
 2016-Jul-10 06:41  s  271.8484  -0.2081
 2016-Jul-10 19:01 *r   90.6456  -0.0797
 2016-Jul-11 01:08 *t  179.4064  53.9598
 2016-Jul-11 07:14  s  267.2299  -0.3464
 2016-Jul-11 19:55 *r   95.4098  -0.0395
 2016-Jul-12 01:51 *t  179.5534  50.0691
 2016-Jul-12 07:46  s  262.6499  -0.3218
 2016-Jul-12 20:48 *r   99.8445  -0.0935
 2016-Jul-13 02:34 *t  179.6005  46.4262
 2016-Jul-13 08:19  s  258.3848  -0.3048
 2016-Jul-13 21:41 *r  103.8794  -0.1468
 2016-Jul-14 03:18 Ct  179.6708  43.1564
 2016-Jul-14 08:54  s  254.5856  -0.3006
 2016-Jul-14 22:35 *r  107.4600  -0.0763
 2016-Jul-15 04:03 Nt  179.5856  40.3931
 2016-Jul-15 09:32  s  251.4248  -0.3186
 2016-Jul-15 23:28 *r  110.1414  -0.1860
 2016-Jul-16 04:51  t  179.8509  38.2784
 2016-Jul-16 10:13  s  248.9714  -0.2257
 2016-Jul-17 00:22 *r  112.0652  -0.0966
 2016-Jul-17 05:41  t  180.1153  36.9596
 2016-Jul-17 10:59  s  247.6006  -0.2359
 2016-Jul-18 01:14 *r  112.7420  -0.1597
 2016-Jul-18 06:32  t  180.1661  36.5703
 2016-Jul-18 11:50 As  247.4477  -0.3065
 2016-Jul-19 02:05 *r  112.2971  -0.0915
 2016-Jul-19 07:25  t  180.4502  37.2016
 2016-Jul-19 12:45 Cs  248.5188  -0.3242
 2016-Jul-20 02:53 *r  110.5185  -0.0888
 2016-Jul-20 08:18  t  180.5947  38.8796
 2016-Jul-20 13:43 *s  250.7867  -0.2494
 2016-Jul-21 03:38 Nr  107.5234  -0.1008
 2016-Jul-21 09:11  t  180.7930  41.5457
 2016-Jul-21 14:44 *s  254.2852  -0.2407
 2016-Jul-22 04:20 Ar  103.4654  -0.1501
 2016-Jul-22 10:03  t  180.8584  45.0609
 2016-Jul-22 15:47 *s  258.8087  -0.3003
 2016-Jul-23 05:00  r   98.6468  -0.1639
 2016-Jul-23 10:55  t  181.1557  49.2200
 2016-Jul-23 16:50 *s  263.9064  -0.2197
 2016-Jul-24 05:39  r   93.3694  -0.1139
 2016-Jul-24 11:46 At  181.2411  53.7765
 2016-Jul-24 17:55 *s  269.5930  -0.3851
 2016-Jul-25 06:17  r   87.7968  -0.1702
 2016-Jul-25 12:37 Ct  181.2703  58.4587
 2016-Jul-25 18:59 *s  275.1401  -0.3009
 2016-Jul-26 06:56  r   82.3547  -0.1871
 2016-Jul-26 13:28 *t  180.8972  62.9831
 2016-Jul-26 20:04 *s  280.4916  -0.3150
 2016-Jul-27 07:37  r   77.3401  -0.1911
 2016-Jul-27 14:21 *t  180.8341  67.0603
 2016-Jul-27 21:09 *s  285.1980  -0.2956
 2016-Jul-28 08:21  r   73.0653  -0.1987
 2016-Jul-28 15:16 *t  181.0295  70.4096
 2016-Jul-28 22:14 *s  289.0099  -0.3470
 2016-Jul-29 09:09  r   69.8648  -0.1888
